{
  "type": "FeatureCollection",
  "features": [
    {
      "type": "Feature",
      "properties": {
        "norad_id": 34036,
        "name": "COSMOS 2251 DEB",
        "group": "cosmos-2251-debris",
        "lat": -20.027169271949163,
        "lon": -17.67260355609815,
        "alt_km": 579.5655375549059,
        "timestamp": "2025-12-09T05:43:21.119952+00:00",
        "meta_object_name": "COSMOS 2251 DEB",
        "meta_object_id": "1993-036HX",
        "meta_epoch": "2025-12-08T12:45:39.959136",
        "meta_mean_motion": 14.94433356,
        "meta_eccentricity": 0.0013472,
        "meta_inclination": 74.0203,
        "meta_ra_of_asc_node": 157.7565,
        "meta_arg_of_pericenter": 191.6688,
        "meta_mean_anomaly": 168.4186,
        "meta_ephemeris_type": 0,
        "meta_classification_type": "U",
        "meta_norad_cat_id": 34036,
        "meta_element_set_no": 999,
        "meta_rev_at_epoch": 88507,
        "meta_bstar": 0.0046509,
        "meta_mean_motion_dot": 0.00050558,
        "meta_mean_motion_ddot": 0,
        "tle_line1": "1 34036U 93036HX  25342.53171249  .00050558  00000+0  46509-2 0  9993",
        "tle_line2": "2 34036  74.0203 157.7565 0013472 191.6688 168.4186 14.94433356885070"
      },
      "geometry": {
        "type": "Point",
        "coordinates": [
          -17.67260355609815,
          -20.027169271949163
        ]
      }
    },
    {
      "type": "Feature",
      "properties": {
        "norad_id": 34037,
        "name": "COSMOS 2251 DEB",
        "group": "cosmos-2251-debris",
        "lat": -59.11274332421475,
        "lon": 28.2952373208546,
        "alt_km": 819.8424410547932,
        "timestamp": "2025-12-09T05:43:21.119963+00:00",
        "meta_object_name": "COSMOS 2251 DEB",
        "meta_object_id": "1993-036HY",
        "meta_epoch": "2025-12-08T14:57:24.538752",
        "meta_mean_motion": 14.34649687,
        "meta_eccentricity": 0.0052137,
        "meta_inclination": 74.0523,
        "meta_ra_of_asc_node": 57.9766,
        "meta_arg_of_pericenter": 109.2388,
        "meta_mean_anomaly": 251.4416,
        "meta_ephemeris_type": 0,
        "meta_classification_type": "U",
        "meta_norad_cat_id": 34037,
        "meta_element_set_no": 999,
        "meta_rev_at_epoch": 87658,
        "meta_bstar": 0.00090852,
        "meta_mean_motion_dot": 2.584e-05,
        "meta_mean_motion_ddot": 0,
        "tle_line1": "1 34037U 93036HY  25342.62320068  .00002584  00000+0  90852-3 0  9996",
        "tle_line2": "2 34037  74.0523  57.9766 0052137 109.2388 251.4416 14.34649687876588"
      },
      "geometry": {
        "type": "Point",
        "coordinates": [
          28.2952373208546,
          -59.11274332421475
        ]
      }
    },
    {
      "type": "Feature",
      "properties": {
        "norad_id": 34040,
        "name": "COSMOS 2251 DEB",
        "group": "cosmos-2251-debris",
        "lat": -58.37863753217779,
        "lon": 43.786246141551004,
        "alt_km": 994.9939344371478,
        "timestamp": "2025-12-09T05:43:21.119973+00:00",
        "meta_object_name": "COSMOS 2251 DEB",
        "meta_object_id": "1993-036JB",
        "meta_epoch": "2025-12-08T15:58:46.460064",
        "meta_mean_motion": 13.68368017,
        "meta_eccentricity": 0.0342916,
        "meta_inclination": 73.9558,
        "meta_ra_of_asc_node": 72.5944,
        "meta_arg_of_pericenter": 26.8037,
        "meta_mean_anomaly": 335.0346,
        "meta_ephemeris_type": 0,
        "meta_classification_type": "U",
        "meta_norad_cat_id": 34040,
        "meta_element_set_no": 999,
        "meta_rev_at_epoch": 83544,
        "meta_bstar": 0.00064013,
        "meta_mean_motion_dot": 8.03e-06,
        "meta_mean_motion_ddot": 0,
        "tle_line1": "1 34040U 93036JB  25342.66581551  .00000803  00000+0  64013-3 0  9992",
        "tle_line2": "2 34040  73.9558  72.5944 0342916  26.8037 335.0346 13.68368017835443"
      },
      "geometry": {
        "type": "Point",
        "coordinates": [
          43.786246141551004,
          -58.37863753217779
        ]
      }
    },
    {
      "type": "Feature",
      "properties": {
        "norad_id": 34045,
        "name": "COSMOS 2251 DEB",
        "group": "cosmos-2251-debris",
        "lat": -10.897954047954824,
        "lon": -45.91969000121615,
        "alt_km": 771.0686375943842,
        "timestamp": "2025-12-09T05:43:21.119984+00:00",
        "meta_object_name": "COSMOS 2251 DEB",
        "meta_object_id": "1993-036JG",
        "meta_epoch": "2025-12-08T10:14:56.814144",
        "meta_mean_motion": 14.3406533,
        "meta_eccentricity": 0.00255112,
        "meta_inclination": 74.0387,
        "meta_ra_of_asc_node": 318.7231,
        "meta_arg_of_pericenter": 43.4638,
        "meta_mean_anomaly": 78.301,
        "meta_ephemeris_type": 0,
        "meta_classification_type": "U",
        "meta_norad_cat_id": 34045,
        "meta_element_set_no": 999,
        "meta_rev_at_epoch": 87971,
        "meta_bstar": 0.00018968061,
        "meta_mean_motion_dot": 5.06e-06,
        "meta_mean_motion_ddot": 0,
        "tle_line1": "1 34045U 93036JG  25342.42704646  .00000506  00000+0  18968-3 0  9991",
        "tle_line2": "2 34045  74.0387 318.7231 0025511  43.4638  78.3010 14.34065330879714"
      },
      "geometry": {
        "type": "Point",
        "coordinates": [
          -45.91969000121615,
          -10.897954047954824
        ]
      }
    },
    {
      "type": "Feature",
      "properties": {
        "norad_id": 34046,
        "name": "COSMOS 2251 DEB",
        "group": "cosmos-2251-debris",
        "lat": -2.765015990022217,
        "lon": -162.19726943000256,
        "alt_km": 731.8463199907437,
        "timestamp": "2025-12-09T05:43:21.119994+00:00",
        "meta_object_name": "COSMOS 2251 DEB",
        "meta_object_id": "1993-036JH",
        "meta_epoch": "2025-12-08T12:58:55.151040",
        "meta_mean_motion": 14.4642032,
        "meta_eccentricity": 0.0074623,
        "meta_inclination": 74.0395,
        "meta_ra_of_asc_node": 18.3124,
        "meta_arg_of_pericenter": 102.9886,
        "meta_mean_anomaly": 48.3117,
        "meta_ephemeris_type": 0,
        "meta_classification_type": "U",
        "meta_norad_cat_id": 34046,
        "meta_element_set_no": 999,
        "meta_rev_at_epoch": 87765,
        "meta_bstar": 0.0015933,
        "meta_mean_motion_dot": 5.905e-05,
        "meta_mean_motion_ddot": 0,
        "tle_line1": "1 34046U 93036JH  25342.54091610  .00005905  00000+0  15933-2 0  9991",
        "tle_line2": "2 34046  74.0395  18.3124 0074623 102.9886  48.3117 14.46420320877655"
      },
      "geometry": {
        "type": "Point",
        "coordinates": [
          -162.19726943000256,
          -2.765015990022217
        ]
      }
    },
    {
      "type": "Feature",
      "properties": {
        "norad_id": 34050,
        "name": "COSMOS 2251 DEB",
        "group": "cosmos-2251-debris",
        "lat": -29.947329062937946,
        "lon": 6.600180858964887,
        "alt_km": 969.4733570902627,
        "timestamp": "2025-12-09T05:43:21.120005+00:00",
        "meta_object_name": "COSMOS 2251 DEB",
        "meta_object_id": "1993-036JM",
        "meta_epoch": "2025-12-08T13:14:34.936800",
        "meta_mean_motion": 13.96171177,
        "meta_eccentricity": 0.0214585,
        "meta_inclination": 74.0886,
        "meta_ra_of_asc_node": 17.2364,
        "meta_arg_of_pericenter": 82.6315,
        "meta_mean_anomaly": 38.5943,
        "meta_ephemeris_type": 0,
        "meta_classification_type": "U",
        "meta_norad_cat_id": 34050,
        "meta_element_set_no": 999,
        "meta_rev_at_epoch": 85373,
        "meta_bstar": 0.00091157,
        "meta_mean_motion_dot": 1.499e-05,
        "meta_mean_motion_ddot": 0,
        "tle_line1": "1 34050U 93036JM  25342.55179325  .00001499  00000+0  91157-3 0  9994",
        "tle_line2": "2 34050  74.0886  17.2364 0214585  82.6315  38.5943 13.96171177853731"
      },
      "geometry": {
        "type": "Point",
        "coordinates": [
          6.600180858964887,
          -29.947329062937946
        ]
      }
    },
    {
      "type": "Feature",
      "properties": {
        "norad_id": 34053,
        "name": "COSMOS 2251 DEB",
        "group": "cosmos-2251-debris",
        "lat": 0.909633942914634,
        "lon": 67.54952765741115,
        "alt_km": 1320.4159938189423,
        "timestamp": "2025-12-09T05:43:21.120016+00:00",
        "meta_object_name": "COSMOS 2251 DEB",
        "meta_object_id": "1993-036JQ",
        "meta_epoch": "2025-12-08T11:04:21.336384",
        "meta_mean_motion": 13.49151516,
        "meta_eccentricity": 0.04219632,
        "meta_inclination": 73.8445,
        "meta_ra_of_asc_node": 249.065,
        "meta_arg_of_pericenter": 38.3285,
        "meta_mean_anomaly": 324.7018,
        "meta_ephemeris_type": 0,
        "meta_classification_type": "U",
        "meta_norad_cat_id": 34053,
        "meta_element_set_no": 999,
        "meta_rev_at_epoch": 82626,
        "meta_bstar": 0.0013500971,
        "meta_mean_motion_dot": 1.45e-05,
        "meta_mean_motion_ddot": 0,
        "tle_line1": "1 34053U 93036JQ  25342.46135806  .00001450  00000+0  13501-2 0  9996",
        "tle_line2": "2 34053  73.8445 249.0650 0421963  38.3285 324.7018 13.49151516826263"
      },
      "geometry": {
        "type": "Point",
        "coordinates": [
          67.54952765741115,
          0.909633942914634
        ]
      }
    }
  ]
}